CTC2_L_00403016-03
1 81699U 26585MM  26070.40847222  .00000000  00000+0  00000-0 0  9992
2 81699  85.0000 180.0000 0000000   0.0000   0.0000 12.77881384    17
CTC2_L_00403016-04
1 81700U 22459QI  26070.40847222  .00000000  00000+0  00000-0 0  9991
2 81700  85.0000 180.0000 0000000   0.0000  90.0000 12.77881384    19
CTC2_L_00403017-01
1 81701U 26561IK  26070.40847222  .00000000  00000+0  00000-0 0  9990
2 81701  85.0000 192.0000 0000000   0.0000 192.0000 12.77881384    16
CTC2_L_00403017-02
1 81702U 26608WT  26070.40847222  .00000000  00000+0  00000-0 0  9993
2 81702  85.0000 192.0000 0000000   0.0000 282.0000 12.77881384    17
CTC2_L_00403017-03
1 81703U 24079HG  26070.40847222  .00000000  00000+0  00000-0 0  9994
2 81703  85.0000 192.0000 0000000   0.0000  12.0000 12.77881384    19
CTC2_L_00403017-04
1 81704U 24010ZU  26070.40847222  .00000000  00000+0  00000-0 0  9990
2 81704  85.0000 192.0000 0000000   0.0000 102.0000 12.77881384    10
CTC2_L_00403018-01
1 81705U 26002NF  26070.40847222  .00000000  00000+0  00000-0 0  9994
2 81705  85.0000 204.0000 0000000   0.0000 204.0000 12.77881384    18
CTC2_L_00403018-02
1 81706U 22278LS  26070.40847222  .00000000  00000+0  00000-0 0  9996
2 81706  85.0000 204.0000 0000000   0.0000 294.0000 12.77881384    18
CTC2_L_00403018-03
1 81707U 24816TT  26070.40847222  .00000000  00000+0  00000-0 0  9997
2 81707  85.0000 204.0000 0000000   0.0000  24.0000 12.77881384    10
CTC2_L_00403018-04
1 81708U 26679EF  26070.40847222  .00000000  00000+0  00000-0 0  9997
2 81708  85.0000 204.0000 0000000   0.0000 114.0000 12.77881384    11
CTC2_L_00403019-01
1 81709U 24928OS  26070.40847222  .00000000  00000+0  00000-0 0  9993
2 81709  85.0000 216.0000 0000000   0.0000 216.0000 12.77881384    18
CTC2_L_00403019-02
1 81710U 23512OL  26070.40847222  .00000000  00000+0  00000-0 0  9993
2 81710  85.0000 216.0000 0000000   0.0000 306.0000 12.77881384    10
CTC2_L_00403019-03
1 81711U 23364BA  26070.40847222  .00000000  00000+0  00000-0 0  9999
2 81711  85.0000 216.0000 0000000   0.0000  36.0000 12.77881384    11
CTC2_L_00403019-04
1 81712U 23687AN  26070.40847222  .00000000  00000+0  00000-0 0  9998
2 81712  85.0000 216.0000 0000000   0.0000 126.0000 12.77881384    12
CTC2_L_00403020-01
1 81713U 26557NQ  26070.40847222  .00000000  00000+0  00000-0 0  9998
2 81713  85.0000 228.0000 0000000   0.0000 228.0000 12.77881384    19
CTC2_L_00403020-02
1 81714U 25941BV  26070.40847222  .00000000  00000+0  00000-0 0  9995
2 81714  85.0000 228.0000 0000000   0.0000 318.0000 12.77881384    10
CTC2_L_00403020-03
1 81715U 23689IG  26070.40847222  .00000000  00000+0  00000-0 0  9993
2 81715  85.0000 228.0000 0000000   0.0000  48.0000 12.77881384    11
CTC2_L_00403020-04
1 81716U 23697JF  26070.40847222  .00000000  00000+0  00000-0 0  9993
2 81716  85.0000 228.0000 0000000   0.0000 138.0000 12.77881384    12
CTC2_L_00403021-01
1 81717U 23833VC  26070.40847222  .00000000  00000+0  00000-0 0  9996
2 81717  85.0000 240.0000 0000000   0.0000 240.0000 12.77881384    11
CTC2_L_00403021-02
1 81718U 24849ZE  26070.40847222  .00000000  00000+0  00000-0 0  9995
2 81718  85.0000 240.0000 0000000   0.0000 330.0000 12.77881384    12
CTC2_L_00403021-03
1 81719U 25395GM  26070.40847222  .00000000  00000+0  00000-0 0  9993
2 81719  85.0000 240.0000 0000000   0.0000  60.0000 12.77881384    13
CTC2_L_00403021-04
1 81720U 22924HW  26070.40847222  .00000000  00000+0  00000-0 0  9990
2 81720  85.0000 240.0000 0000000   0.0000 150.0000 12.77881384    15
CTC2_L_00403022-01
1 81721U 26296QC  26070.40847222  .00000000  00000+0  00000-0 0  9997
2 81721  85.0000 252.0000 0000000   0.0000 252.0000 12.77881384    12
CTC2_L_00403022-02
1 81722U 26062SA  26070.40847222  .00000000  00000+0  00000-0 0  9999
2 81722  85.0000 252.0000 0000000   0.0000 342.0000 12.77881384    13
CTC2_L_00403022-03
1 81723U 25788EN  26070.40847222  .00000000  00000+0  00000-0 0  9994
2 81723  85.0000 252.0000 0000000   0.0000  72.0000 12.77881384    14
CTC2_L_00403022-04
1 81724U 23846ZS  26070.40847222  .00000000  00000+0  00000-0 0  9998
2 81724  85.0000 252.0000 0000000   0.0000 162.0000 12.77881384    15
CTC2_L_00403023-01
1 81725U 23735LW  26070.40847222  .00000000  00000+0  00000-0 0  9996
2 81725  85.0000 264.0000 0000000   0.0000 264.0000 12.77881384    12
CTC2_L_00403023-02
1 81726U 26134IK  26070.40847222  .00000000  00000+0  00000-0 0  9993
2 81726  85.0000 264.0000 0000000   0.0000 354.0000 12.77881384    13
CTC2_L_00403023-03
1 81727U 26489CV  26070.40847222  .00000000  00000+0  00000-0 0  9997
2 81727  85.0000 264.0000 0000000   0.0000  84.0000 12.77881384    14
CTC2_L_00403023-04
1 81728U 23313HV  26070.40847222  .00000000  00000+0  00000-0 0  9991
2 81728  85.0000 264.0000 0000000   0.0000 174.0000 12.77881384    15
CTC2_L_00403024-01
1 81729U 26496TF  26070.40847222  .00000000  00000+0  00000-0 0  9997
2 81729  85.0000 276.0000 0000000   0.0000 276.0000 12.77881384    12
CTC2_L_00403024-02
1 81730U 22440BK  26070.40847222  .00000000  00000+0  00000-0 0  9994
2 81730  85.0000 276.0000 0000000   0.0000   6.0000 12.77881384    15
CTC2_L_00403024-03
1 81731U 26249YE  26070.40847222  .00000000  00000+0  00000-0 0  9996
2 81731  85.0000 276.0000 0000000   0.0000  96.0000 12.77881384    15
CTC2_L_00403024-04
1 81732U 23021GW  26070.40847222  .00000000  00000+0  00000-0 0  9992
2 81732  85.0000 276.0000 0000000   0.0000 186.0000 12.77881384    16
CTC2_L_00403025-01
1 81733U 25307SD  26070.40847222  .00000000  00000+0  00000-0 0  9992
2 81733  85.0000 288.0000 0000000   0.0000 288.0000 12.77881384    13
CTC2_L_00403025-02
1 81734U 24035OL  26070.40847222  .00000000  00000+0  00000-0 0  9990
2 81734  85.0000 288.0000 0000000   0.0000  18.0000 12.77881384    15
CTC2_L_00403025-03
1 81735U 25559SU  26070.40847222  .00000000  00000+0  00000-0 0  9993
2 81735  85.0000 288.0000 0000000   0.0000 108.0000 12.77881384    16
CTC2_L_00403025-04
1 81736U 22077LZ  26070.40847222  .00000000  00000+0  00000-0 0  9996
2 81736  85.0000 288.0000 0000000   0.0000 198.0000 12.77881384    16
CTC2_L_00403026-01
1 81737U 22787RZ  26070.40847222  .00000000  00000+0  00000-0 0  9995
2 81737  85.0000 300.0000 0000000   0.0000 300.0000 12.77881384    17
CTC2_L_00403026-02
1 81738U 23874VL  26070.40847222  .00000000  00000+0  00000-0 0  9994
2 81738  85.0000 300.0000 0000000   0.0000  30.0000 12.77881384    18
CTC2_L_00403026-03
1 81739U 24482PY  26070.40847222  .00000000  00000+0  00000-0 0  9991
2 81739  85.0000 300.0000 0000000   0.0000 120.0000 12.77881384    19
CTC2_L_00403026-04
1 81740U 25919MF  26070.40847222  .00000000  00000+0  00000-0 0  9999
2 81740  85.0000 300.0000 0000000   0.0000 210.0000 12.77881384    11
CTC2_L_00403027-01
1 81741U 22875FK  26070.40847222  .00000000  00000+0  00000-0 0  9998
2 81741  85.0000 312.0000 0000000   0.0000 312.0000 12.77881384    18
CTC2_L_00403027-02
1 81742U 26767LB  26070.40847222  .00000000  00000+0  00000-0 0  9993
2 81742  85.0000 312.0000 0000000   0.0000  42.0000 12.77881384    19
CTC2_L_00403027-03
1 81743U 23482OD  26070.40847222  .00000000  00000+0  00000-0 0  9995
2 81743  85.0000 312.0000 0000000   0.0000 132.0000 12.77881384    10
CTC2_L_00403027-04
1 81744U 22810TP  26070.40847222  .00000000  00000+0  00000-0 0  9990
2 81744  85.0000 312.0000 0000000   0.0000 222.0000 12.77881384    11
CTC2_L_00403028-01
1 81745U 23193VZ  26070.40847222  .00000000  00000+0  00000-0 0  9996
2 81745  85.0000 324.0000 0000000   0.0000 324.0000 12.77881384    18
CTC2_L_00403028-02
1 81746U 25254MB  26070.40847222  .00000000  00000+0  00000-0 0  9997
2 81746  85.0000 324.0000 0000000   0.0000  54.0000 12.77881384    19
CTC2_L_00403028-03
1 81747U 25125GZ  26070.40847222  .00000000  00000+0  00000-0 0  9995
2 81747  85.0000 324.0000 0000000   0.0000 144.0000 12.77881384    10
CTC2_L_00403028-04
1 81748U 26198BN  26070.40847222  .00000000  00000+0  00000-0 0  9997
2 81748  85.0000 324.0000 0000000   0.0000 234.0000 12.77881384    11
CTC2_L_00403029-01
1 81749U 22206YZ  26070.40847222  .00000000  00000+0  00000-0 0  9994
2 81749  85.0000 336.0000 0000000   0.0000 336.0000 12.77881384    18
CTC2_L_00403029-02
1 81750U 22465FQ  26070.40847222  .00000000  00000+0  00000-0 0  9993
2 81750  85.0000 336.0000 0000000   0.0000  66.0000 12.77881384    10
CTC2_L_00403029-03
1 81751U 24158EQ  26070.40847222  .00000000  00000+0  00000-0 0  9995
2 81751  85.0000 336.0000 0000000   0.0000 156.0000 12.77881384    11
CTC2_L_00403029-04
1 81752U 24681GN  26070.40847222  .00000000  00000+0  00000-0 0  9997
2 81752  85.0000 336.0000 0000000   0.0000 246.0000 12.77881384    12
CTC2_L_00403030-01
1 81753U 23450AA  26070.40847222  .00000000  00000+0  00000-0 0  9991
2 81753  85.0000 348.0000 0000000   0.0000 348.0000 12.77881384    19
CTC2_L_00403030-02
1 81754U 26609KU  26070.40847222  .00000000  00000+0  00000-0 0  9991
2 81754  85.0000 348.0000 0000000   0.0000  78.0000 12.77881384    10
CTC2_L_00403030-03
1 81755U 24528YA  26070.40847222  .00000000  00000+0  00000-0 0  9990
2 81755  85.0000 348.0000 0000000   0.0000 168.0000 12.77881384    11
CTC2_L_00403030-04
1 81756U 26139MD  26070.40847222  .00000000  00000+0  00000-0 0  9991
2 81756  85.0000 348.0000 0000000   0.0000 258.0000 12.77881384    12
